{"type": "FeatureCollection", "features": [{"type": "Feature", "properties": {"norad_id": 2807, "name": "OPS 7218 (TRANSIT 16)", "group": "nnss", "lat": 23.110977407489088, "lon": -6.267102288565484, "alt_km": 1060.1106875616806, "timestamp": "2025-12-25T11:37:44.703831+00:00", "meta": {"OBJECT_NAME": "OPS 7218 (TRANSIT 16)", "OBJECT_ID": "1967-048A", "EPOCH": "2025-12-25T01:10:04.103040", "MEAN_MOTION": 13.50724741, "ECCENTRICITY": 0.0022148, "INCLINATION": 89.6734, "RA_OF_ASC_NODE": 353.6078, "ARG_OF_PERICENTER": 81.3315, "MEAN_ANOMALY": 343.8092, "EPHEMERIS_TYPE": 0, "CLASSIFICATION_TYPE": "U", "NORAD_CAT_ID": 2807, "ELEMENT_SET_NO": 999, "REV_AT_EPOCH": 88442, "BSTAR": 0.00013354, "MEAN_MOTION_DOT": 9.6e-07, "MEAN_MOTION_DDOT": 0}, "tle": {"line1": "1 02807U 67048A   25359.04865860  .00000096  00000+0  13354-3 0  9996", "line2": "2 02807  89.6734 353.6078 0022148  81.3315 343.8092 13.50724741884425"}}, "geometry": {"type": "Point", "coordinates": [-6.267102288565484, 23.110977407489088]}}, {"type": "Feature", "properties": {"norad_id": 2965, "name": "OPS 4947 (TRANSIT 17)", "group": "nnss", "lat": -33.34502488060475, "lon": -156.0421628166555, "alt_km": 1032.1480574947582, "timestamp": "2025-12-25T11:37:44.703852+00:00", "meta": {"OBJECT_NAME": "OPS 4947 (TRANSIT 17)", "OBJECT_ID": "1967-092A", "EPOCH": "2025-12-24T15:39:13.887648", "MEAN_MOTION": 13.53456658, "ECCENTRICITY": 0.00470847, "INCLINATION": 89.2486, "RA_OF_ASC_NODE": 23.5265, "ARG_OF_PERICENTER": 199.1608, "MEAN_ANOMALY": 281.0103, "EPHEMERIS_TYPE": 0, "CLASSIFICATION_TYPE": "U", "NORAD_CAT_ID": 2965, "ELEMENT_SET_NO": 999, "REV_AT_EPOCH": 87258, "BSTAR": 0.00018040166, "MEAN_MOTION_DOT": 1.33e-06, "MEAN_MOTION_DDOT": 0}, "tle": {"line1": "1 02965U 67092A   25358.65224407  .00000133  00000+0  18040-3 0  9991", "line2": "2 02965  89.2486  23.5265 0047084 199.1608 281.0103 13.53456658872582"}}, "geometry": {"type": "Point", "coordinates": [-156.0421628166555, -33.34502488060475]}}, {"type": "Feature", "properties": {"norad_id": 3133, "name": "OPS 7034 (TRANSIT 18)", "group": "nnss", "lat": -83.76155582462638, "lon": -86.06381259511133, "alt_km": 1118.8322933411719, "timestamp": "2025-12-25T11:37:44.703865+00:00", "meta": {"OBJECT_NAME": "OPS 7034 (TRANSIT 18)", "OBJECT_ID": "1968-012A", "EPOCH": "2025-12-25T05:41:08.147040", "MEAN_MOTION": 13.51568629, "ECCENTRICITY": 0.0074981, "INCLINATION": 90.0285, "RA_OF_ASC_NODE": 273.6746, "ARG_OF_PERICENTER": 133.2476, "MEAN_ANOMALY": 18.2568, "EPHEMERIS_TYPE": 0, "CLASSIFICATION_TYPE": "U", "NORAD_CAT_ID": 3133, "ELEMENT_SET_NO": 999, "REV_AT_EPOCH": 57087, "BSTAR": 0.00021562, "MEAN_MOTION_DOT": 1.53e-06, "MEAN_MOTION_DDOT": 0}, "tle": {"line1": "1 03133U 68012A   25359.23689985  .00000153  00000+0  21562-3 0  9998", "line2": "2 03133  90.0285 273.6746 0074981 133.2476  18.2568 13.51568629570879"}}, "geometry": {"type": "Point", "coordinates": [-86.06381259511133, -83.76155582462638]}}, {"type": "Feature", "properties": {"norad_id": 4507, "name": "NNSS 19 (TRANSIT 19)", "group": "nnss", "lat": -55.0787841777637, "lon": 54.5356927515233, "alt_km": 955.972912493281, "timestamp": "2025-12-25T11:37:44.703877+00:00", "meta": {"OBJECT_NAME": "NNSS 19 (TRANSIT 19)", "OBJECT_ID": "1970-067A", "EPOCH": "2025-12-25T05:07:31.564992", "MEAN_MOTION": 13.51317581, "ECCENTRICITY": 0.0170206, "INCLINATION": 90.0047, "RA_OF_ASC_NODE": 234.5423, "ARG_OF_PERICENTER": 256.8648, "MEAN_ANOMALY": 101.3462, "EPHEMERIS_TYPE": 0, "CLASSIFICATION_TYPE": "U", "NORAD_CAT_ID": 4507, "ELEMENT_SET_NO": 999, "REV_AT_EPOCH": 72390, "BSTAR": 0.0001322, "MEAN_MOTION_DOT": 1.02e-06, "MEAN_MOTION_DDOT": 0}, "tle": {"line1": "1 04507U 70067A   25359.21355978  .00000102  00000+0  13220-3 0  9993", "line2": "2 04507  90.0047 234.5423 0170206 256.8648 101.3462 13.51317581723909"}}, "geometry": {"type": "Point", "coordinates": [54.5356927515233, -55.0787841777637]}}, {"type": "Feature", "properties": {"norad_id": 6909, "name": "NNSS 20 (TRANSIT 20)", "group": "nnss", "lat": 27.977893429766826, "lon": 74.78670688157342, "alt_km": 1033.6542914160063, "timestamp": "2025-12-25T11:37:44.703888+00:00", "meta": {"OBJECT_NAME": "NNSS 20 (TRANSIT 20)", "OBJECT_ID": "1973-081A", "EPOCH": "2025-12-25T03:54:01.208736", "MEAN_MOTION": 13.7144081, "ECCENTRICITY": 0.0156132, "INCLINATION": 89.856, "RA_OF_ASC_NODE": 254.8681, "ARG_OF_PERICENTER": 41.4954, "MEAN_ANOMALY": 319.7939, "EPHEMERIS_TYPE": 0, "CLASSIFICATION_TYPE": "U", "NORAD_CAT_ID": 6909, "ELEMENT_SET_NO": 999, "REV_AT_EPOCH": 80531, "BSTAR": 0.00028042, "MEAN_MOTION_DOT": 2.86e-06, "MEAN_MOTION_DDOT": 0}, "tle": {"line1": "1 06909U 73081A   25359.16251399  .00000286  00000+0  28042-3 0  9997", "line2": "2 06909  89.8560 254.8681 0156132  41.4954 319.7939 13.71440810805318"}}, "geometry": {"type": "Point", "coordinates": [74.78670688157342, 27.977893429766826]}}, {"type": "Feature", "properties": {"norad_id": 10457, "name": "TRANSAT", "group": "nnss", "lat": 47.99624806521363, "lon": -102.24614260311722, "alt_km": 1053.4910352088727, "timestamp": "2025-12-25T11:37:44.703899+00:00", "meta": {"OBJECT_NAME": "TRANSAT", "OBJECT_ID": "1977-106A", "EPOCH": "2025-12-25T03:56:24.941184", "MEAN_MOTION": 13.48945499, "ECCENTRICITY": 0.0026522, "INCLINATION": 89.6475, "RA_OF_ASC_NODE": 78.1569, "ARG_OF_PERICENTER": 154.2871, "MEAN_ANOMALY": 222.9086, "EPHEMERIS_TYPE": 0, "CLASSIFICATION_TYPE": "U", "NORAD_CAT_ID": 10457, "ELEMENT_SET_NO": 999, "REV_AT_EPOCH": 36911, "BSTAR": 0.00012823, "MEAN_MOTION_DOT": 9.1e-07, "MEAN_MOTION_DDOT": 0}, "tle": {"line1": "1 10457U 77106A   25359.16417756  .00000091  00000+0  12823-3 0  9997", "line2": "2 10457  89.6475  78.1569 0026522 154.2871 222.9086 13.48945499369114"}}, "geometry": {"type": "Point", "coordinates": [-102.24614260311722, 47.99624806521363]}}, {"type": "Feature", "properties": {"norad_id": 12458, "name": "NOVA 1", "group": "nnss", "lat": -62.56827279305103, "lon": 90.92065538869335, "alt_km": 1187.8865510715077, "timestamp": "2025-12-25T11:37:44.703910+00:00", "meta": {"OBJECT_NAME": "NOVA 1", "OBJECT_ID": "1981-044A", "EPOCH": "2025-12-25T00:07:00.564096", "MEAN_MOTION": 13.23279741, "ECCENTRICITY": 0.0015741, "INCLINATION": 89.8525, "RA_OF_ASC_NODE": 91.2118, "ARG_OF_PERICENTER": 73.8704, "MEAN_ANOMALY": 99.9773, "EPHEMERIS_TYPE": 0, "CLASSIFICATION_TYPE": "U", "NORAD_CAT_ID": 12458, "ELEMENT_SET_NO": 999, "REV_AT_EPOCH": 15348, "BSTAR": 0.00017384, "MEAN_MOTION_DOT": 8.3e-07, "MEAN_MOTION_DDOT": 0}, "tle": {"line1": "1 12458U 81044A   25359.00486764  .00000083  00000+0  17384-3 0  9992", "line2": "2 12458  89.8525  91.2118 0015741  73.8704  99.9773 13.23279741153482"}}, "geometry": {"type": "Point", "coordinates": [90.92065538869335, -62.56827279305103]}}, {"type": "Feature", "properties": {"norad_id": 15362, "name": "NOVA 3", "group": "nnss", "lat": 20.550244528884367, "lon": -99.26983338407561, "alt_km": 1189.1870636023586, "timestamp": "2025-12-25T11:37:44.703920+00:00", "meta": {"OBJECT_NAME": "NOVA 3", "OBJECT_ID": "1984-110A", "EPOCH": "2025-12-25T05:38:53.420064", "MEAN_MOTION": 13.23046152, "ECCENTRICITY": 0.0029863, "INCLINATION": 90.1217, "RA_OF_ASC_NODE": 80.6816, "ARG_OF_PERICENTER": 295.8842, "MEAN_ANOMALY": 117.4355, "EPHEMERIS_TYPE": 0, "CLASSIFICATION_TYPE": "U", "NORAD_CAT_ID": 15362, "ELEMENT_SET_NO": 999, "REV_AT_EPOCH": 98864, "BSTAR": 0.00013404, "MEAN_MOTION_DOT": 6.5e-07, "MEAN_MOTION_DDOT": 0}, "tle": {"line1": "1 15362U 84110A   25359.23534051  .00000065  00000+0  13404-3 0  9993", "line2": "2 15362  90.1217  80.6816 0029863 295.8842 117.4355 13.23046152988642"}}, "geometry": {"type": "Point", "coordinates": [-99.26983338407561, 20.550244528884367]}}, {"type": "Feature", "properties": {"norad_id": 15935, "name": "OSCAR 30", "group": "nnss", "lat": 60.58133506440796, "lon": -79.65144208357007, "alt_km": 1075.1633860312477, "timestamp": "2025-12-25T11:37:44.703930+00:00", "meta": {"OBJECT_NAME": "OSCAR 30", "OBJECT_ID": "1985-066A", "EPOCH": "2025-12-25T01:06:57.917952", "MEAN_MOTION": 13.36080406, "ECCENTRICITY": 0.0168861, "INCLINATION": 90.1652, "RA_OF_ASC_NODE": 100.0483, "ARG_OF_PERICENTER": 49.502, "MEAN_ANOMALY": 122.3469, "EPHEMERIS_TYPE": 0, "CLASSIFICATION_TYPE": "U", "NORAD_CAT_ID": 15935, "ELEMENT_SET_NO": 999, "REV_AT_EPOCH": 96617, "BSTAR": 0.00021168, "MEAN_MOTION_DOT": 1.27e-06, "MEAN_MOTION_DDOT": 0}, "tle": {"line1": "1 15935U 85066A   25359.04650368  .00000127  00000+0  21168-3 0  9994", "line2": "2 15935  90.1652 100.0483 0168861  49.5020 122.3469 13.36080406966171"}}, "geometry": {"type": "Point", "coordinates": [-79.65144208357007, 60.58133506440796]}}, {"type": "Feature", "properties": {"norad_id": 15936, "name": "OSCAR 24", "group": "nnss", "lat": -7.898523189415588, "lon": -87.49404812556934, "alt_km": 1214.3202688829224, "timestamp": "2025-12-25T11:37:44.703941+00:00", "meta": {"OBJECT_NAME": "OSCAR 24", "OBJECT_ID": "1985-066B", "EPOCH": "2025-12-24T20:54:20.922336", "MEAN_MOTION": 13.35937478, "ECCENTRICITY": 0.01700665, "INCLINATION": 90.1791, "RA_OF_ASC_NODE": 92.52, "ARG_OF_PERICENTER": 56.4546, "MEAN_ANOMALY": 61.219, "EPHEMERIS_TYPE": 0, "CLASSIFICATION_TYPE": "U", "NORAD_CAT_ID": 15936, "ELEMENT_SET_NO": 999, "REV_AT_EPOCH": 96805, "BSTAR": 0.00015449613, "MEAN_MOTION_DOT": 9.5e-07, "MEAN_MOTION_DDOT": 0}, "tle": {"line1": "1 15936U 85066B   25358.87107549  .00000095  00000+0  15450-3 0  9994", "line2": "2 15936  90.1791  92.5200 0170066  56.4546  61.2190 13.35937478968058"}}, "geometry": {"type": "Point", "coordinates": [-87.49404812556934, -7.898523189415588]}}]}